STARLINK-4202           
1 52848U 22062U   26082.97332532 -.00001294  00000+0 -63243-4 0  9990
2 52848  53.2194 329.9983 0001243  96.0653 264.0481 15.08833203207945
STARLINK-4197           
1 52849U 22062V   26082.94848592 -.00001939  00000+0 -10377-3 0  9991
2 52849  53.2179 320.1113 0001422 102.3676 257.7475 15.08834953208072
STARLINK-4187           
1 52850U 22062W   26082.92648928 -.00001326  00000+0 -65263-4 0  9997
2 52850  53.2189 330.5691 0001441  97.8366 262.2790 15.08833011207935
STARLINK-3809           
1 52851U 22062X   26082.94480323 -.00001200  00000+0 -57298-4 0  9993
2 52851  53.2184 320.1261 0001236  95.0429 265.0704 15.08837477208073
STARLINK-4184           
1 52852U 22062Y   26082.88592622 -.00001738  00000+0 -91128-4 0  9999
2 52852  53.2185 320.3914 0001356 107.5732 252.5408 15.08835102208065
STARLINK-4189           
1 52853U 22062Z   26082.93471433 -.00000296  00000+0 -52224-6 0  9996
2 52853  53.2182 320.1467 0001317  99.2084 260.9057 15.08841645208071
STARLINK-4204           
1 52854U 22062AA  26082.94112148 -.00000101  00000+0  11744-4 0  9997
2 52854  53.2180 320.1424 0001301  99.1512 260.9627 15.08838669208076
STARLINK-4209           
1 52855U 22062AB  26082.93007130  .00000948  00000+0  77631-4 0  9996
2 52855  53.2172 320.1972 0001182  90.0400 270.0728 15.08847347208076
STARLINK-4201           
1 52856U 22062AC  26082.93840401 -.00000982  00000+0 -43631-4 0  9996
2 52856  53.2178 320.2038 0001307  93.8457 266.2685 15.08841242208076
STARLINK-4199           
1 52857U 22062AD  26082.92272408 -.00001466  00000+0 -74027-4 0  9993
2 52857  53.2172 320.2299 0001170  92.4393 267.6733 15.08840763208078
STARLINK-4198           
1 52858U 22062AE  26082.93377261 -.00001550  00000+0 -79308-4 0  9999
2 52858  53.2179 320.2049 0001625  85.5457 274.5721 15.08837014208077
STARLINK-4196           
1 52859U 22062AF  26082.91904296 -.00000971  00000+0 -42909-4 0  9995
2 52859  53.2169 320.2467 0001388  80.7677 279.3472 15.08838630208079
STARLINK-4191           
1 52860U 22062AG  26082.92641304 -.00001785  00000+0 -94075-4 0  9991
2 52860  53.2172 320.2117 0001252  78.8236 281.2897 15.08834525208078
STARLINK-4112           
1 52861U 22062AH  26082.90161232 -.00000607  00000+0 -20064-4 0  9996
2 52861  53.2176 320.3337 0001393  80.1853 279.9296 15.08825159208075
STARLINK-4010           
1 52862U 22062AJ  26082.91536621 -.00000673  00000+0 -24193-4 0  9996
2 52862  53.2195 320.2593 0001071  82.2500 277.8614 15.08835214208079
STARLINK-4270           
1 52863U 22062AK  26082.90800762 -.00001098  00000+0 -50923-4 0  9998
2 52863  53.2180 320.2948 0001437  85.4293 274.6863 15.08837044208072
