[{"OBJECT_NAME":"STARLINK-4202","OBJECT_ID":"2022-062U","EPOCH":"2026-03-23T23:21:35.307648","MEAN_MOTION":15.08833203,"ECCENTRICITY":0.00012436,"INCLINATION":53.2194,"RA_OF_ASC_NODE":329.9983,"ARG_OF_PERICENTER":96.0653,"MEAN_ANOMALY":264.0481,"EPHEMERIS_TYPE":0,"CLASSIFICATION_TYPE":"U","NORAD_CAT_ID":52848,"ELEMENT_SET_NO":999,"REV_AT_EPOCH":20794,"BSTAR":-6.3242861e-5,"MEAN_MOTION_DOT":-1.294e-5,"MEAN_MOTION_DDOT":0},{"OBJECT_NAME":"STARLINK-4197","OBJECT_ID":"2022-062V","EPOCH":"2026-03-23T22:45:49.183488","MEAN_MOTION":15.08834953,"ECCENTRICITY":0.00014224,"INCLINATION":53.2179,"RA_OF_ASC_NODE":320.1113,"ARG_OF_PERICENTER":102.3676,"MEAN_ANOMALY":257.7475,"EPHEMERIS_TYPE":0,"CLASSIFICATION_TYPE":"U","NORAD_CAT_ID":52849,"ELEMENT_SET_NO":999,"REV_AT_EPOCH":20807,"BSTAR":-0.00010377496,"MEAN_MOTION_DOT":-1.939e-5,"MEAN_MOTION_DDOT":0},{"OBJECT_NAME":"STARLINK-4187","OBJECT_ID":"2022-062W","EPOCH":"2026-03-23T22:14:08.673792","MEAN_MOTION":15.08833011,"ECCENTRICITY":0.00014413,"INCLINATION":53.2189,"RA_OF_ASC_NODE":330.5691,"ARG_OF_PERICENTER":97.8366,"MEAN_ANOMALY":262.279,"EPHEMERIS_TYPE":0,"CLASSIFICATION_TYPE":"U","NORAD_CAT_ID":52850,"ELEMENT_SET_NO":999,"REV_AT_EPOCH":20793,"BSTAR":-6.5262687e-5,"MEAN_MOTION_DOT":-1.326e-5,"MEAN_MOTION_DDOT":0},{"OBJECT_NAME":"STARLINK-3809","OBJECT_ID":"2022-062X","EPOCH":"2026-03-23T22:40:30.999072","MEAN_MOTION":15.08837477,"ECCENTRICITY":0.00012365,"INCLINATION":53.2184,"RA_OF_ASC_NODE":320.1261,"ARG_OF_PERICENTER":95.0429,"MEAN_ANOMALY":265.0704,"EPHEMERIS_TYPE":0,"CLASSIFICATION_TYPE":"U","NORAD_CAT_ID":52851,"ELEMENT_SET_NO":999,"REV_AT_EPOCH":20807,"BSTAR":-5.7297536e-5,"MEAN_MOTION_DOT":-1.2e-5,"MEAN_MOTION_DDOT":0},{"OBJECT_NAME":"STARLINK-4184","OBJECT_ID":"2022-062Y","EPOCH":"2026-03-23T21:15:44.025408","MEAN_MOTION":15.08835102,"ECCENTRICITY":0.00013566,"INCLINATION":53.2185,"RA_OF_ASC_NODE":320.3914,"ARG_OF_PERICENTER":107.5732,"MEAN_ANOMALY":252.5408,"EPHEMERIS_TYPE":0,"CLASSIFICATION_TYPE":"U","NORAD_CAT_ID":52852,"ELEMENT_SET_NO":999,"REV_AT_EPOCH":20806,"BSTAR":-9.1127963e-5,"MEAN_MOTION_DOT":-1.738e-5,"MEAN_MOTION_DDOT":0},{"OBJECT_NAME":"STARLINK-4189","OBJECT_ID":"2022-062Z","EPOCH":"2026-03-23T22:25:59.318112","MEAN_MOTION":15.08841645,"ECCENTRICITY":0.00013179,"INCLINATION":53.2182,"RA_OF_ASC_NODE":320.1467,"ARG_OF_PERICENTER":99.2084,"MEAN_ANOMALY":260.9057,"EPHEMERIS_TYPE":0,"CLASSIFICATION_TYPE":"U","NORAD_CAT_ID":52853,"ELEMENT_SET_NO":999,"REV_AT_EPOCH":20807,"BSTAR":-5.22244e-7,"MEAN_MOTION_DOT":-2.96e-6,"MEAN_MOTION_DDOT":0},{"OBJECT_NAME":"STARLINK-4204","OBJECT_ID":"2022-062AA","EPOCH":"2026-03-23T22:35:12.895872","MEAN_MOTION":15.08838669,"ECCENTRICITY":0.00013016,"INCLINATION":53.218,"RA_OF_ASC_NODE":320.1424,"ARG_OF_PERICENTER":99.1512,"MEAN_ANOMALY":260.9627,"EPHEMERIS_TYPE":0,"CLASSIFICATION_TYPE":"U","NORAD_CAT_ID":52854,"ELEMENT_SET_NO":999,"REV_AT_EPOCH":20807,"BSTAR":1.1743665e-5,"MEAN_MOTION_DOT":-1.01e-6,"MEAN_MOTION_DDOT":0},{"OBJECT_NAME":"STARLINK-4209","OBJECT_ID":"2022-062AB","EPOCH":"2026-03-23T22:19:18.160320","MEAN_MOTION":15.08847347,"ECCENTRICITY":0.00011823,"INCLINATION":53.2172,"RA_OF_ASC_NODE":320.1972,"ARG_OF_PERICENTER":90.04,"MEAN_ANOMALY":270.0728,"EPHEMERIS_TYPE":0,"CLASSIFICATION_TYPE":"U","NORAD_CAT_ID":52855,"ELEMENT_SET_NO":999,"REV_AT_EPOCH":20807,"BSTAR":7.7630648e-5,"MEAN_MOTION_DOT":9.48e-6,"MEAN_MOTION_DDOT":0},{"OBJECT_NAME":"STARLINK-4201","OBJECT_ID":"2022-062AC","EPOCH":"2026-03-23T22:31:18.106464","MEAN_MOTION":15.08841242,"ECCENTRICITY":0.00013079,"INCLINATION":53.2178,"RA_OF_ASC_NODE":320.2038,"ARG_OF_PERICENTER":93.8457,"MEAN_ANOMALY":266.2685,"EPHEMERIS_TYPE":0,"CLASSIFICATION_TYPE":"U","NORAD_CAT_ID":52856,"ELEMENT_SET_NO":999,"REV_AT_EPOCH":20807,"BSTAR":-4.3631279e-5,"MEAN_MOTION_DOT":-9.82e-6,"MEAN_MOTION_DDOT":0},{"OBJECT_NAME":"STARLINK-4199","OBJECT_ID":"2022-062AD","EPOCH":"2026-03-23T22:08:43.360512","MEAN_MOTION":15.08840763,"ECCENTRICITY":0.00011704,"INCLINATION":53.2172,"RA_OF_ASC_NODE":320.2299,"ARG_OF_PERICENTER":92.4393,"MEAN_ANOMALY":267.6733,"EPHEMERIS_TYPE":0,"CLASSIFICATION_TYPE":"U","NORAD_CAT_ID":52857,"ELEMENT_SET_NO":999,"REV_AT_EPOCH":20807,"BSTAR":-7.4026674e-5,"MEAN_MOTION_DOT":-1.466e-5,"MEAN_MOTION_DDOT":0},{"OBJECT_NAME":"STARLINK-4198","OBJECT_ID":"2022-062AE","EPOCH":"2026-03-23T22:24:37.953504","MEAN_MOTION":15.08837014,"ECCENTRICITY":0.00016257,"INCLINATION":53.2179,"RA_OF_ASC_NODE":320.2049,"ARG_OF_PERICENTER":85.5457,"MEAN_ANOMALY":274.5721,"EPHEMERIS_TYPE":0,"CLASSIFICATION_TYPE":"U","NORAD_CAT_ID":52858,"ELEMENT_SET_NO":999,"REV_AT_EPOCH":20807,"BSTAR":-7.9307548e-5,"MEAN_MOTION_DOT":-1.55e-5,"MEAN_MOTION_DDOT":0},{"OBJECT_NAME":"STARLINK-4196","OBJECT_ID":"2022-062AF","EPOCH":"2026-03-23T22:03:25.311744","MEAN_MOTION":15.0883863,"ECCENTRICITY":0.00013887,"INCLINATION":53.2169,"RA_OF_ASC_NODE":320.2467,"ARG_OF_PERICENTER":80.7677,"MEAN_ANOMALY":279.3472,"EPHEMERIS_TYPE":0,"CLASSIFICATION_TYPE":"U","NORAD_CAT_ID":52859,"ELEMENT_SET_NO":999,"REV_AT_EPOCH":20807,"BSTAR":-4.2908767e-5,"MEAN_MOTION_DOT":-9.71e-6,"MEAN_MOTION_DDOT":0},{"OBJECT_NAME":"STARLINK-4191","OBJECT_ID":"2022-062AG","EPOCH":"2026-03-23T22:14:02.086656","MEAN_MOTION":15.08834525,"ECCENTRICITY":0.0001252,"INCLINATION":53.2172,"RA_OF_ASC_NODE":320.2117,"ARG_OF_PERICENTER":78.8236,"MEAN_ANOMALY":281.2897,"EPHEMERIS_TYPE":0,"CLASSIFICATION_TYPE":"U","NORAD_CAT_ID":52860,"ELEMENT_SET_NO":999,"REV_AT_EPOCH":20807,"BSTAR":-9.4074873e-5,"MEAN_MOTION_DOT":-1.785e-5,"MEAN_MOTION_DDOT":0},{"OBJECT_NAME":"STARLINK-4112","OBJECT_ID":"2022-062AH","EPOCH":"2026-03-23T21:38:19.304448","MEAN_MOTION":15.08825159,"ECCENTRICITY":0.00013931,"INCLINATION":53.2176,"RA_OF_ASC_NODE":320.3337,"ARG_OF_PERICENTER":80.1853,"MEAN_ANOMALY":279.9296,"EPHEMERIS_TYPE":0,"CLASSIFICATION_TYPE":"U","NORAD_CAT_ID":52861,"ELEMENT_SET_NO":999,"REV_AT_EPOCH":20807,"BSTAR":-2.0064025e-5,"MEAN_MOTION_DOT":-6.07e-6,"MEAN_MOTION_DDOT":0},{"OBJECT_NAME":"STARLINK-4010","OBJECT_ID":"2022-062AJ","EPOCH":"2026-03-23T21:58:07.640544","MEAN_MOTION":15.08835214,"ECCENTRICITY":0.00010713,"INCLINATION":53.2195,"RA_OF_ASC_NODE":320.2593,"ARG_OF_PERICENTER":82.25,"MEAN_ANOMALY":277.8614,"EPHEMERIS_TYPE":0,"CLASSIFICATION_TYPE":"U","NORAD_CAT_ID":52862,"ELEMENT_SET_NO":999,"REV_AT_EPOCH":20807,"BSTAR":-2.4193134e-5,"MEAN_MOTION_DOT":-6.73e-6,"MEAN_MOTION_DDOT":0},{"OBJECT_NAME":"STARLINK-4270","OBJECT_ID":"2022-062AK","EPOCH":"2026-03-23T21:47:31.858368","MEAN_MOTION":15.08837044,"ECCENTRICITY":0.00014372,"INCLINATION":53.218,"RA_OF_ASC_NODE":320.2948,"ARG_OF_PERICENTER":85.4293,"MEAN_ANOMALY":274.6863,"EPHEMERIS_TYPE":0,"CLASSIFICATION_TYPE":"U","NORAD_CAT_ID":52863,"ELEMENT_SET_NO":999,"REV_AT_EPOCH":20807,"BSTAR":-5.0923203e-5,"MEAN_MOTION_DOT":-1.098e-5,"MEAN_MOTION_DDOT":0}]
